OBJECT_NAME,OBJECT_ID,EPOCH,MEAN_MOTION,ECCENTRICITY,INCLINATION,RA_OF_ASC_NODE,ARG_OF_PERICENTER,MEAN_ANOMALY,EPHEMERIS_TYPE,CLASSIFICATION_TYPE,NORAD_CAT_ID,ELEMENT_SET_NO,REV_AT_EPOCH,BSTAR,MEAN_MOTION_DOT,MEAN_MOTION_DDOT
SL-12 R/B(2),1985-042D,2026-06-08T12:20:11.418720,14.22004411,.0035799,71.1085,255.8398,340.9748,101.8633,0,U,15772,999,12730,.40351E-4,.42E-6,0
SL-14 R/B,1985-069B,2026-06-08T11:39:31.188096,14.86508933,.0017316,82.5265,299.5499,250.0420,109.8932,0,U,15945,999,18632,.5029E-4,.47E-5,0
SL-16 R/B,1985-097B,2026-06-08T12:17:45.229056,14.16612402,.0005608,71.0038,309.3413,128.7281,295.6502,0,U,16182,999,10009,-.10367E-4,-.69E-6,0
SL-14 R/B,1986-006B,2026-06-08T12:07:36.927264,14.86937060,.0075611,82.5260,174.2834,332.6736,27.0511,0,U,16496,999,16270,.62489E-4,.614E-5,0
COSMOS 1743,1986-034A,2026-06-08T12:33:44.791776,15.66165646,.0003526,82.5285,337.9396,312.4740,47.6222,0,U,16719,999,19443,.42569E-3,.43901E-3,0
SL-14 R/B,1986-046B,2026-06-08T01:27:02.697696,14.85665172,.00216496,82.4817,354.8006,290.7360,69.1536,0,U,16792,999,13982,.43718373E-4,.404E-5,0
SL-14 R/B,1986-055B,2026-06-08T09:52:30.860256,14.85717186,.0019794,82.5211,41.3838,35.8696,141.2267,0,U,16882,999,13283,.43851E-4,.406E-5,0
AJISAI (EGS),1986-061A,2026-06-08T11:19:41.923200,12.44516753,.0011268,50.0061,174.1949,158.4843,314.3654,0,U,16908,999,47930,.10563E-3,-.82E-6,0
SL-14 R/B,1987-024B,2026-06-08T01:27:54.138528,14.86207476,.00173336,82.5284,7.8295,325.6156,34.3938,0,U,17567,999,10155,.45173521E-4,.422E-5,0
COSMOS 1833,1987-027A,2026-06-08T07:55:42.151008,14.13043325,.0022585,70.9157,135.4853,69.8097,290.5450,0,U,17589,999,2312,.19339E-3,.314E-5,0
SL-16 R/B,1987-027B,2026-06-08T11:07:42.777120,14.17171855,.0006083,71.0032,85.2109,322.7803,37.2899,0,U,17590,999,2820,.10355E-3,.161E-5,0
SL-14 R/B,1987-038B,2026-06-08T12:09:30.473280,14.85440375,.0018188,82.5015,211.2487,220.9809,139.0041,0,U,17912,999,9271,.39344E-4,.364E-5,0
COSMOS 1844,1987-041A,2026-06-08T11:31:14.801088,14.14569799,.0033253,70.8983,202.6736,248.1156,111.6428,0,U,17973,999,1642,-.48901E-4,-.143E-5,0
SL-14 R/B,1987-055B,2026-06-08T12:50:25.841184,14.85705159,.0022078,82.4996,263.3848,74.5511,285.8141,0,U,18153,999,8342,.4924E-4,.453E-5,0
COSMOS 1867,1987-060A,2026-06-08T01:13:52.573152,14.31514869,.00163209,65.0116,53.6444,282.0532,77.8723,0,U,18187,999,3287,.28077824E-4,-.25E-6,0
SL-14 R/B,1988-001B,2026-06-08T08:01:28.957152,14.85603198,.0016669,82.5125,110.1017,301.5066,58.4521,0,U,18749,999,5548,.51217E-4,.468E-5,0
COSMOS 1933,1988-020A,2026-06-08T11:19:43.346208,15.18659728,.0002662,82.5123,161.0657,222.7209,137.3819,0,U,18958,999,6400,.17713E-3,.3699E-4,0
SL-3 R/B,1988-032B,2026-06-08T11:48:45.565056,15.20775920,.0023652,97.5253,142.5423,277.7052,82.1498,0,U,19046,999,6590,.2048E-3,.4472E-4,0
SL-16 R/B,1988-039B,2026-06-08T10:53:46.862304,14.19629145,.0022711,71.0148,236.6245,206.0530,153.9454,0,U,19120,999,97126,.70234E-4,.101E-5,0
COSMOS 1953,1988-050A,2026-06-08T10:48:57.870720,15.29853526,.0011398,82.5075,66.8428,153.4921,206.6905,0,U,19210,999,5165,.21502E-3,.6259E-4,0
SL-8 R/B,1988-053B,2026-06-08T12:35:42.033120,14.38964564,.0019224,74.0478,305.0252,103.4935,322.5183,0,U,19257,999,98966,.94729E-4,.267E-5,0
COSMOS 1975,1988-093A,2026-06-08T02:59:25.812384,15.29211307,.00105652,82.5200,26.8176,203.4179,156.6582,0,U,19573,999,3322,.27799242E-3,.7923E-4,0
SL-14 R/B,1988-093B,2026-06-08T12:26:11.260896,14.85735423,.0022191,82.5305,316.7842,97.1580,328.0240,0,U,19574,999,1450,.55505E-4,.509E-5,0
SL-16 R/B,1988-102B,2026-06-08T11:00:13.807296,14.16166687,.0016096,71.0004,320.5057,237.4780,122.4788,0,U,19650,999,93974,-.16714E-4,-.81E-6,0
INTERCOSMOS 24,1989-080A,2026-06-08T04:48:39.974688,12.59647486,.1188342,82.6074,45.4917,82.7388,290.6950,0,U,20261,999,67819,.25725E-3,.906E-5,0
SL-14 R/B,1989-080C,2026-06-08T08:42:18.645984,12.50564983,.1229255,82.5920,114.9765,337.5929,17.5566,0,U,20262,999,67148,.13196E-3,.443E-5,0
DELTA 1 R/B,1989-089B,2026-06-08T12:41:16.217088,14.50725755,.006849,97.0641,352.4724,194.3244,165.6014,0,U,20323,999,90890,.97476E-4,.359E-5,0
ARIANE 40 R/B,1990-005H,2026-06-08T03:36:15.303168,14.39922785,.00088733,98.2962,217.0468,295.5878,64.4394,0,U,20443,999,90582,.9399821E-4,.253E-5,0
DELTA 2 R/B(1),1990-008B,2026-06-08T02:04:37.872480,15.67415827,.00673473,35.6007,296.4795,27.7476,332.6833,0,U,20453,999,94027,.65681994E-3,.84361E-3,0
COSMOS 2058,1990-010A,2026-06-08T11:10:52.622112,15.11954430,.0010344,82.4663,317.9568,30.0865,330.0958,0,U,20465,999,95595,.18669E-3,.3232E-4,0
SL-14 R/B,1990-010B,2026-06-08T11:13:29.752608,14.83640812,.0019862,82.5017,182.1337,5.4058,354.7367,0,U,20466,999,94194,.42032E-4,.372E-5,0
