SL-12 R/B(2)            
1 15772U 85042D   26159.51402105  .00000042  00000+0  40351-4 0  9994
2 15772  71.1085 255.8398 0035799 340.9748 101.8633 14.22004411127308
SL-14 R/B               
1 15945U 85069B   26159.48577764  .00000470  00000+0  50290-4 0  9993
2 15945  82.5265 299.5499 0017316 250.0420 109.8932 14.86508933186321
SL-16 R/B               
1 16182U 85097B   26159.51232904 -.00000069  00000+0 -10367-4 0  9993
2 16182  71.0038 309.3413 0005608 128.7281 295.6502 14.16612402100096
SL-14 R/B               
1 16496U 86006B   26159.50528851  .00000614  00000+0  62489-4 0  9996
2 16496  82.5260 174.2834 0075611 332.6736  27.0511 14.86937060162706
COSMOS 1743             
1 16719U 86034A   26159.52343509  .00043901  00000+0  42569-3 0  9994
2 16719  82.5285 337.9396 0003526 312.4740  47.6222 15.66165646194433
SL-14 R/B               
1 16792U 86046B   26159.06044789  .00000404  00000+0  43718-4 0  9994
2 16792  82.4817 354.8006 0021649 290.7360  69.1536 14.85665172139820
SL-14 R/B               
1 16882U 86055B   26159.41146829  .00000406  00000+0  43851-4 0  9991
2 16882  82.5211  41.3838 0019794  35.8696 141.2267 14.85717186132838
AJISAI (EGS)            
1 16908U 86061A   26159.47201300 -.00000082  00000+0  10563-3 0  9993
2 16908  50.0061 174.1949 0011268 158.4843 314.3654 12.44516753479301
SL-14 R/B               
1 17567U 87024B   26159.06104327  .00000422  00000+0  45174-4 0  9995
2 17567  82.5284   7.8295 0017333 325.6156  34.3938 14.86207476101550
COSMOS 1833             
1 17589U 87027A   26159.33034897  .00000314  00000+0  19339-3 0  9999
2 17589  70.9157 135.4853 0022585  69.8097 290.5450 14.13043325 23120
SL-16 R/B               
1 17590U 87027B   26159.46368955  .00000161  00000+0  10355-3 0  9999
2 17590  71.0032  85.2109 0006083 322.7803  37.2899 14.17171855 28204
SL-14 R/B               
1 17912U 87038B   26159.50660270  .00000364  00000+0  39344-4 0  9994
2 17912  82.5015 211.2487 0018188 220.9809 139.0041 14.85440375 92712
COSMOS 1844             
1 17973U 87041A   26159.48003242 -.00000143  00000+0 -48901-4 0  9998
2 17973  70.8983 202.6736 0033253 248.1156 111.6428 14.14569799 16424
SL-14 R/B               
1 18153U 87055B   26159.53502131  .00000453  00000+0  49240-4 0  9990
2 18153  82.4996 263.3848 0022078  74.5511 285.8141 14.85705159 83425
COSMOS 1867             
1 18187U 87060A   26159.05130293 -.00000025  00000+0  28078-4 0  9998
2 18187  65.0116  53.6444 0016320 282.0532  77.8723 14.31514869 32872
SL-14 R/B               
1 18749U 88001B   26159.33436293  .00000468  00000+0  51217-4 0  9999
2 18749  82.5125 110.1017 0016669 301.5066  58.4521 14.85603198 55486
COSMOS 1933             
1 18958U 88020A   26159.47202947  .00003699  00000+0  17713-3 0  9995
2 18958  82.5123 161.0657 0002662 222.7209 137.3819 15.18659728 64004
SL-3 R/B                
1 19046U 88032B   26159.49219404  .00004472  00000+0  20480-3 0  9990
2 19046  97.5253 142.5423 0023652 277.7052  82.1498 15.20775920 65902
SL-16 R/B               
1 19120U 88039B   26159.45401461  .00000101  00000+0  70234-4 0  9990
2 19120  71.0148 236.6245 0022711 206.0530 153.9454 14.19629145971261
COSMOS 1953             
1 19210U 88050A   26159.45066980  .00006259  00000+0  21502-3 0  9999
2 19210  82.5075  66.8428 0011398 153.4921 206.6905 15.29853526 51654
SL-8 R/B                
1 19257U 88053B   26159.52479205  .00000267  00000+0  94729-4 0  9994
2 19257  74.0478 305.0252 0019224 103.4935 322.5183 14.38964564989668
COSMOS 1975             
1 19573U 88093A   26159.12460431  .00007923  00000+0  27799-3 0  9994
2 19573  82.5200  26.8176 0010565 203.4179 156.6582 15.29211307 33221
SL-14 R/B               
1 19574U 88093B   26159.51818589  .00000509  00000+0  55505-4 0  9999
2 19574  82.5305 316.7842 0022191  97.1580 328.0240 14.85735423 14508
SL-16 R/B               
1 19650U 88102B   26159.45849314 -.00000081  00000+0 -16714-4 0  9994
2 19650  71.0004 320.5057 0016096 237.4780 122.4788 14.16166687939740
INTERCOSMOS 24          
1 20261U 89080A   26159.20046267  .00000906  00000+0  25725-3 0  9994
2 20261  82.6074  45.4917 1188342  82.7388 290.6950 12.59647486678197
SL-14 R/B               
1 20262U 89080C   26159.36271581  .00000443  00000+0  13196-3 0  9996
2 20262  82.5920 114.9765 1229255 337.5929  17.5566 12.50564983671486
DELTA 1 R/B             
1 20323U 89089B   26159.52865992  .00000359  00000+0  97476-4 0  9996
2 20323  97.0641 352.4724 0068490 194.3244 165.6014 14.50725755908900
ARIANE 40 R/B           
1 20443U 90005H   26159.15017712  .00000253  00000+0  93998-4 0  9995
2 20443  98.2962 217.0468 0008873 295.5878  64.4394 14.39922785905823
DELTA 2 R/B(1)          
1 20453U 90008B   26159.08654945  .00084361  00000+0  65682-3 0  9996
2 20453  35.6007 296.4795 0067347  27.7476 332.6833 15.67415827940275
COSMOS 2058             
1 20465U 90010A   26159.46588683  .00003232  00000+0  18669-3 0  9990
2 20465  82.4663 317.9568 0010344  30.0865 330.0958 15.11954430955955
SL-14 R/B               
1 20466U 90010B   26159.46770547  .00000372  00000+0  42032-4 0  9997
2 20466  82.5017 182.1337 0019862   5.4058 354.7367 14.83640812941945
